STARLINK-31226          
1 58858U 24019F   24038.58334491 -.01117177  00000+0 -73652-2 0  9995
2 58858  43.0043 223.7035 0001562 259.3883  78.5942 15.77261816  2735
STARLINK-31197          
1 58859U 24019G   24038.58334491 -.01129938  00000+0 -74791-2 0  9999
2 58859  43.0041 223.7003 0001526 258.9489  80.3164 15.77203232  2731
STARLINK-31213          
1 58860U 24019H   24038.58334491 -.01277158  00000+0 -76899-2 0  9990
2 58860  43.0043 223.6452 0001505 260.7382 100.5721 15.79620321  2730
STARLINK-31199          
1 58861U 24019J   24038.58334491 -.01154265  00000+0 -77047-2 0  9990
2 58861  43.0041 223.6937 0001693 260.0472  81.8180 15.77071185  2734
STARLINK-31200          
1 58862U 24019K   24038.58334491 -.01167433  00000+0 -78270-2 0  9991
2 58862  43.0043 223.6905 0001713 261.1333  82.0181 15.77003884  2738
STARLINK-31149          
1 58863U 24019L   24038.58334491 -.01178870  00000+0 -79362-2 0  9992
2 58863  43.0042 223.6871 0001687 259.8933  84.5061 15.76939700  2727
STARLINK-31242          
1 58864U 24019M   24038.58334491 -.01192058  00000+0 -80645-2 0  9993
2 58864  43.0041 223.6840 0001542 257.8715  87.8264 15.76863101  2732
STARLINK-31223          
1 58865U 24019N   24038.58334491 -.01206474  00000+0 -81986-2 0  9991
2 58865  43.0036 223.6811 0001573 259.9460  86.9838 15.76797371  2584
STARLINK-31219          
1 58866U 24019P   24038.58334491 -.01219004  00000+0 -83215-2 0  9992
2 58866  43.0037 223.6776 0001564 258.9804  89.1883 15.76725994  2483
STARLINK-31198          
1 58867U 24019Q   24038.58334491 -.01210132  00000+0 -68971-2 0  9998
2 58867  43.0039 223.4927 0001755 270.9359 150.8671 15.80647040  2484
STARLINK-31196          
1 58868U 24019R   24038.58334491 -.01243244  00000+0 -85615-2 0  9993
2 58868  43.0034 223.6710 0001777 265.5529  85.0315 15.76586671  2486
STARLINK-31203          
1 58869U 24019S   24038.58334491 -.01279978  00000+0 -87057-2 0  9999
2 58869  43.0036 223.6680 0001610 259.6855  92.1608 15.76499184  2731
STARLINK-31201          
1 58870U 24019T   24038.58334491 -.01295734  00000+0 -88561-2 0  9990
2 58870  43.0034 223.6651 0001505 259.2723  93.7799 15.76421995  2533
STARLINK-31214          
1 58871U 24019U   24038.58334491 -.01307498  00000+0 -89760-2 0  9994
2 58871  43.0037 223.6623 0001543 258.6134  95.6160 15.76346290  2534
STARLINK-31215          
1 58872U 24019V   24038.58334491 -.01326842  00000+0 -91632-2 0  9990
2 58872  43.0033 223.6591 0001389 263.2391  92.2267 15.76253068  2586
STARLINK-31177          
1 58873U 24019W   24038.58334491 -.01338878  00000+0 -92893-2 0  9993
2 58873  43.0035 223.6563 0001539 259.7129  96.9175 15.76171714  2737
STARLINK-30945          
1 58874U 24019X   24038.58334491 -.01211105  00000+0 -67627-2 0  9994
2 58874  43.0039 223.5322 0001542 264.5225 141.6183 15.81089741  2730
STARLINK-31212          
1 58875U 24019Y   24038.58334491 -.01364180  00000+0 -95526-2 0  9996
2 58875  43.0036 223.6503 0001658 272.2188  86.6870 15.76014348  2581
STARLINK-31306          
1 58876U 24020A   24038.58334491 -.00965009  00000+0 -58785-2 0  9991
2 58876  53.1652 259.9496 0000553  67.9820 196.3702 15.79285452  2690
STARLINK-31326          
1 58877U 24020B   24038.58334491 -.00975422  00000+0 -59546-2 0  9998
2 58877  53.1652 259.9467 0000681  64.6732 201.0615 15.79265622  2691
STARLINK-31300          
1 58878U 24020C   24038.58334491 -.00980781  00000+0 -60005-2 0  9995
2 58878  53.1636 259.9493 0000670  85.6488 181.6175 15.79232010  2691
STARLINK-31296          
1 58879U 24020D   24038.58334491 -.00994229  00000+0 -61056-2 0  9995
2 58879  53.1634 259.9455 0000731  86.7356 182.3071 15.79185751  2694
STARLINK-31328          
1 58880U 24020E   24038.58334491 -.00763725  00000+0 -45872-2 0  9990
2 58880  53.1653 259.9373 0000636 115.4454 154.9767 15.79065351  2699
STARLINK-31260          
1 58881U 24020F   24038.58334491 -.01014882  00000+0 -62637-2 0  9993
2 58881  53.1633 259.9395 0000647  86.9253 184.9740 15.79132937  2692
STARLINK-31323          
1 58882U 24020G   24038.58334491 -.01049795  00000+0 -63952-2 0  9996
2 58882  53.1651 259.9302 0000699  65.4470 208.1308 15.79091050  2533
STARLINK-31209          
1 58883U 24020H   24038.58334491 -.01059316  00000+0 -64728-2 0  9999
2 58883  53.1634 259.9325 0000657  84.0127 191.1839 15.79046344  2581
STARLINK-31315          
1 58884U 24020J   24038.58334491 -.00588108  00000+0 -21911-2 0  9992
2 58884  53.1626 259.6335 0000084 310.3132 109.2960 15.88611295  2517
STARLINK-31318          
1 58885U 24020K   24038.58334491  .00321140  00000+0  14264-2 0  9995
2 58885  53.1649 259.9016 0000823  19.2460 268.5142 15.82950180  2516
STARLINK-31320          
1 58886U 24020L   24038.58334491 -.01098870  00000+0 -67813-2 0  9998
2 58886  53.1649 259.9173 0000531  72.5102 207.3964 15.78919822  2697
STARLINK-31321          
1 58887U 24020M   24038.58334491 -.01122680  00000+0 -69689-2 0  9999
2 58887  53.1649 259.9110 0000874  63.3553 219.4808 15.78842541  2512
